{"type":"FeatureCollection","features":[{"type":"Feature","properties":{"district":"姆西岬"},"geometry":{"type":"Polygon","coordinates":[[[-173.05,7.75],[-174.15,7.9],[-174.6,8.65],[-176.5,8.8],[-177,8.5],[-176.85,7.65],[-177,5.6],[-176.7,5.5],[-176.7,4.05],[-175.65,3.85],[-174.8,4.2],[-173.55,5.1],[-173,6.65],[-173.05,7.75]]]}},{"type":"Feature","properties":{"district":"波納佩灣"},"geometry":{"type":"Polygon","coordinates":[[[-173.05,7.75],[-173,6.65],[-173.55,5.1],[-174.8,4.2],[-175.65,3.85],[-175.5,3.25],[-174.5,3.15],[-174.5,2.3],[-174,2.3],[-173.8,1.85],[-173.3,1.7],[-173.3,1.2],[-172.6,1.2],[-172.45,1.55],[-171.25,1.55],[-171.15,0.25],[-169.7,1.95],[-168.95,2.45],[-168.8,3.35],[-168.55,5.05],[-171.2,7.65],[-172.45,7.55],[-173.05,7.75]]]}},{"type":"Feature","properties":{"district":"晨星岬"},"geometry":{"type":"Polygon","coordinates":[[[-171.2,7.65],[-168.55,5.05],[-167,4.95],[-166.15,5.4],[-164.8,6.65],[-164.6,7.2],[-165.1,7.4],[-166.4,7.4],[-167.3,7.9],[-168.75,7.9],[-169.6,8.2],[-170.05,7.7],[-171.2,7.65]]]}},{"type":"Feature","properties":{"district":"落日灣"},"geometry":{"type":"Polygon","coordinates":[[[-168.8,3.35],[-168.95,2.45],[-169.7,1.95],[-171.15,0.25],[-170.05,0.1],[-169.75,0.45],[-169.05,0.45],[-168.95,-0.5],[-167.6,-0.6],[-167.75,-2.7],[-168.75,-2.85],[-168.75,-3.1],[-167.1,-2.95],[-166.45,-2.6],[-165.85,-1.45],[-165.85,-1.1],[-166.75,0.15],[-167,1.25],[-166.8,2.55],[-167.75,3.35],[-168.8,3.35]]]}},{"type":"Feature","properties":{"district":"姆西原"},"geometry":{"type":"Polygon","coordinates":[[[-168.55,5.05],[-168.8,3.35],[-167.75,3.35],[-166.8,2.55],[-167,1.25],[-166.75,0.15],[-165.85,-1.1],[-165.85,-1.45],[-166.45,-2.6],[-167.1,-2.95],[-168.75,-3.1],[-168.75,-4.1],[-169.1,-4.25],[-169.1,-4.9],[-168.65,-5.2],[-167.9,-4.6],[-166.95,-3.25],[-165.5,-2.2],[-164.25,-1.9],[-163.7,-1.45],[-162.25,-1.65],[-161.95,0],[-161.95,1],[-161.75,1.45],[-161.8,2.45],[-160.55,3.65],[-160.35,4.25],[-160.1,6.15],[-160.85,6.15],[-161.6,7.1],[-164.6,7.2],[-164.8,6.65],[-166.15,5.4],[-167,4.95],[-168.55,5.05]]]}},{"type":"Feature","properties":{"district":"翡翠半島"},"geometry":{"type":"Polygon","coordinates":[[[-162.25,-1.65],[-163.7,-1.45],[-164.25,-1.9],[-165.5,-2.2],[-166.95,-3.25],[-167.9,-4.6],[-168.65,-5.2],[-168.6,-5.4],[-167.4,-5.25],[-167.25,-5.85],[-166.5,-5.85],[-166,-5.55],[-165.85,-4.6],[-165,-4.45],[-165.05,-5.7],[-164.7,-5.85],[-164.55,-6.8],[-164.05,-6.8],[-163.85,-7.25],[-163.05,-5.85],[-161.75,-5.2],[-161.3,-4.1],[-160.3,-3.3],[-161.3,-1.95],[-162.25,-1.65]]]}},{"type":"Feature","properties":{"district":"斐濟南灘"},"geometry":{"type":"Polygon","coordinates":[[[-160.3,-3.3],[-161.3,-4.1],[-161.75,-5.2],[-163.05,-5.85],[-163.85,-7.25],[-163.7,-7.6],[-163.05,-7.6],[-162.85,-8.05],[-162.2,-7.75],[-161.35,-7.75],[-161.15,-8.4],[-160.35,-8.5],[-160.35,-9.5],[-159.45,-9.35],[-159,-9.75],[-159.15,-10.9],[-157.5,-10.8],[-157.3,-12.65],[-156.25,-12.65],[-156.05,-11.85],[-154.4,-11.85],[-154.55,-9.65],[-154.1,-9],[-155.3,-9.75],[-155.1,-8.9],[-155.65,-8],[-156.45,-7.25],[-157.15,-6.05],[-157.55,-4.45],[-157.85,-3.95],[-159.2,-3.6],[-159.45,-3.35],[-160.3,-3.3]]]}},{"type":"Feature","properties":{"district":"姆中央谷地"},"geometry":{"type":"Polygon","coordinates":[[[-160.1,6.15],[-160.35,4.25],[-160.55,3.65],[-161.8,2.45],[-161.75,1.45],[-161.95,1],[-161.95,0],[-162.25,-1.65],[-161.3,-1.95],[-160.3,-3.3],[-159.45,-3.35],[-158.15,-2.75],[-157.4,-2.65],[-156.7,-2.1],[-156.1,-1.35],[-154.9,-0.9],[-153.4,-0.9],[-152,-0.15],[-151.9,0.55],[-152.2,2.15],[-152.65,2.65],[-153.35,4.1],[-153.3,5.4],[-152.9,7.05],[-154.65,6.35],[-155.75,6.7],[-156.7,6.7],[-157.75,7.35],[-158.2,8.05],[-158.6,7.9],[-159.5,6.8],[-160.1,6.15]]]}},{"type":"Feature","properties":{"district":"夏威夷南麓"},"geometry":{"type":"Polygon","coordinates":[[[-159.5,6.8],[-158.6,7.9],[-158.2,8.05],[-157.75,7.35],[-156.7,6.7],[-155.75,6.7],[-154.65,6.35],[-152.9,7.05],[-152.5,7.6],[-151.55,8.2],[-151.45,9.1],[-151.75,10.05],[-151.8,10.95],[-153.1,11],[-153.55,10.7],[-154.6,10.55],[-154.9,10.25],[-155.95,10.25],[-156.1,9.9],[-157.45,9.9],[-158.3,10.25],[-158.95,9.45],[-160.15,9.15],[-160.35,8.3],[-159.5,7.7],[-159.5,6.8]]]}},{"type":"Feature","properties":{"district":"聖樹平原"},"geometry":{"type":"Polygon","coordinates":[[[-159.45,-3.35],[-159.2,-3.6],[-157.85,-3.95],[-157.55,-4.45],[-157.15,-6.05],[-156.45,-7.25],[-155.65,-8],[-155.1,-8.9],[-155.3,-9.75],[-154.1,-9],[-153.25,-8.85],[-152.9,-9.95],[-152,-9.95],[-151.85,-9.35],[-151.2,-9.35],[-151.05,-10.1],[-150.65,-10.1],[-151.15,-9],[-150.9,-7.8],[-150.2,-6.8],[-149.45,-6.4],[-149.2,-5.75],[-149.5,-4.8],[-148.6,-3.45],[-149.55,-3.35],[-150.55,-2.35],[-150.9,-0.7],[-152,-0.15],[-153.4,-0.9],[-154.9,-0.9],[-156.1,-1.35],[-156.7,-2.1],[-157.4,-2.65],[-158.15,-2.75],[-159.45,-3.35]]]}},{"type":"Feature","properties":{"district":"日昇高原"},"geometry":{"type":"Polygon","coordinates":[[[-152.9,7.05],[-153.3,5.4],[-153.35,4.1],[-152.65,2.65],[-152.2,2.15],[-151.9,0.55],[-152,-0.15],[-150.9,-0.7],[-150.7,-0.25],[-149.7,0.65],[-149.15,0.65],[-148.15,1.45],[-147.3,2.65],[-147.25,3.5],[-148.15,5.1],[-148.2,5.7],[-149.7,6.15],[-150.7,6.85],[-151.55,8.2],[-152.5,7.6],[-152.9,7.05]]]}},{"type":"Feature","properties":{"district":"內海渡口"},"geometry":{"type":"Polygon","coordinates":[[[-150.9,-0.7],[-150.55,-2.35],[-149.55,-3.35],[-148.6,-3.45],[-147.75,-3.2],[-147.6,-2],[-147.8,-1.45],[-147.55,-0.8],[-148.85,0],[-149.15,0.65],[-149.7,0.65],[-150.7,-0.25],[-150.9,-0.7]]]}},{"type":"Feature","properties":{"district":"北海岸"},"geometry":{"type":"Polygon","coordinates":[[[-151.8,10.95],[-151.75,10.05],[-151.45,9.1],[-151.55,8.2],[-150.7,6.85],[-149.7,6.15],[-148.2,5.7],[-147.25,6.25],[-144.95,8.1],[-144.7,8.65],[-144.25,8.85],[-143.7,8.3],[-142.8,7.95],[-143.05,9],[-143.25,9.55],[-142.8,10.7],[-145.3,10.55],[-146.05,10.7],[-147.9,10.7],[-148.6,11],[-149.2,10.85],[-151.8,10.95]]]}},{"type":"Feature","properties":{"district":"紅岩台地"},"geometry":{"type":"Polygon","coordinates":[[[-148.6,-3.45],[-149.5,-4.8],[-149.2,-5.75],[-149.45,-6.4],[-150.2,-6.8],[-150.9,-7.8],[-151.15,-9],[-150.65,-10.1],[-149.35,-10.25],[-149.2,-12],[-149.55,-12.6],[-149.55,-13.4],[-145.8,-13.4],[-146.1,-12.35],[-145.7,-11.75],[-144.75,-11],[-143.95,-9.7],[-142.85,-8.95],[-142.15,-9.1],[-142.9,-7.55],[-142.85,-5.7],[-143.15,-4.05],[-144.65,-3.45],[-146.4,-3.45],[-147,-3],[-147.75,-3.2],[-148.6,-3.45]]]}},{"type":"Feature","properties":{"district":"王都盆地"},"geometry":{"type":"Polygon","coordinates":[[[-148.2,5.7],[-148.15,5.1],[-147.25,3.5],[-147.3,2.65],[-148.15,1.45],[-149.15,0.65],[-148.85,0],[-147.55,-0.8],[-147.8,-1.45],[-147.6,-2],[-147.75,-3.2],[-147,-3],[-146.4,-3.45],[-144.65,-3.45],[-143.15,-4.05],[-142.05,-2.45],[-141.7,-1.4],[-141.2,-0.95],[-140.3,-0.6],[-139.3,-0.7],[-138.9,-0.4],[-138.75,0.35],[-138.3,0.85],[-137.95,2.45],[-137.95,3.1],[-137.65,3.85],[-138.7,4.15],[-138.95,4.75],[-140.2,4.5],[-140.8,4.9],[-142,4.75],[-142.35,5.15],[-142.7,6.25],[-142.4,8.05],[-143.05,9],[-142.8,7.95],[-143.7,8.3],[-144.25,8.85],[-144.7,8.65],[-144.95,8.1],[-147.25,6.25],[-148.2,5.7]]]}},{"type":"Feature","properties":{"district":"珊瑚灣"},"geometry":{"type":"Polygon","coordinates":[[[-142.15,-9.1],[-142.85,-8.95],[-143.95,-9.7],[-144.75,-11],[-145.7,-11.75],[-146.1,-12.35],[-145.8,-13.4],[-144.45,-13.4],[-144.1,-12.95],[-144.1,-12.3],[-142.75,-11.85],[-142.75,-10.95],[-142.4,-10.3],[-141.55,-10.1],[-141.55,-9.35],[-142.15,-9.1]]]}},{"type":"Feature","properties":{"district":"馬克薩斯灣"},"geometry":{"type":"Polygon","coordinates":[[[-142.8,10.7],[-143.25,9.55],[-143.05,9],[-142.4,8.05],[-142.7,6.25],[-142.35,5.15],[-142,4.75],[-140.8,4.9],[-140.2,4.5],[-138.95,4.75],[-138.7,4.15],[-137.65,3.85],[-136.7,4.5],[-136.5,5.2],[-137.65,6.8],[-138.35,8.05],[-139.1,8.2],[-140.2,8.95],[-140.2,9.75],[-140.7,10.25],[-141.8,10.25],[-142.8,10.7]]]}},{"type":"Feature","properties":{"district":"月神湖區"},"geometry":{"type":"Polygon","coordinates":[[[-143.15,-4.05],[-142.85,-5.7],[-142.9,-7.55],[-142.15,-9.1],[-141.55,-9.35],[-141.3,-8.7],[-140.2,-8.7],[-140.1,-8.4],[-139.35,-8.4],[-139.35,-7.55],[-139.1,-7.15],[-137.95,-7.15],[-137.05,-6.65],[-136.35,-6.65],[-135.1,-5.85],[-134.15,-4.8],[-134.8,-3.15],[-135.5,-2.5],[-137.55,-2.4],[-138.2,-1.8],[-138.9,-0.4],[-139.3,-0.7],[-140.3,-0.6],[-141.2,-0.95],[-141.7,-1.4],[-142.05,-2.45],[-143.15,-4.05]]]}},{"type":"Feature","properties":{"district":"東原"},"geometry":{"type":"Polygon","coordinates":[[[-137.65,3.85],[-137.95,3.1],[-137.95,2.45],[-138.3,0.85],[-138.75,0.35],[-138.9,-0.4],[-138.2,-1.8],[-137.55,-2.4],[-135.5,-2.5],[-135.1,-1.9],[-135.1,-0.95],[-134.7,-0.4],[-132.75,0.2],[-133.15,1.25],[-133.95,2],[-134.3,2.85],[-135.15,3.25],[-135.3,4.25],[-136.5,5.2],[-136.7,4.5],[-137.65,3.85]]]}},{"type":"Feature","properties":{"district":"長尾半島"},"geometry":{"type":"Polygon","coordinates":[[[-134.15,-4.8],[-135.1,-5.85],[-136.35,-6.65],[-136.05,-7.45],[-135,-7.45],[-134.55,-8],[-134.55,-9],[-133.15,-8.85],[-132.5,-9.45],[-132.35,-9.95],[-131.45,-10.1],[-131.15,-11.05],[-129.05,-11.35],[-129.7,-11.1],[-130.6,-9.55],[-130.65,-8.95],[-131.7,-7.7],[-131.65,-6.75],[-133.2,-5.2],[-134.15,-4.8]]]}},{"type":"Feature","properties":{"district":"長尾北岸"},"geometry":{"type":"Polygon","coordinates":[[[-135.5,-2.5],[-134.8,-3.15],[-134.15,-4.8],[-133.2,-5.2],[-131.65,-6.75],[-130.65,-6.25],[-130.6,-5.6],[-130.1,-4.85],[-130.6,-4.15],[-130.6,-3.6],[-131.1,-3.45],[-131.3,-2.5],[-131.65,-2.15],[-132.1,-0.8],[-132.45,-0.65],[-132.45,0],[-132.75,0.2],[-134.7,-0.4],[-135.1,-0.95],[-135.1,-1.9],[-135.5,-2.5]]]}},{"type":"Feature","properties":{"district":"南十字岬"},"geometry":{"type":"Polygon","coordinates":[[[-131.65,-6.75],[-131.7,-7.7],[-130.65,-8.95],[-130.6,-9.55],[-129.7,-11.1],[-129.05,-11.35],[-128.15,-10.3],[-127.94999999999999,-9.05],[-127.05000000000001,-7.25],[-128.4,-6.5],[-128.55,-5.9],[-129.1,-5.35],[-129.65,-5.35],[-130.1,-4.85],[-130.6,-5.6],[-130.65,-6.25],[-131.65,-6.75]]]}},{"type":"Feature","properties":{"district":"遺跡高地"},"geometry":{"type":"Polygon","coordinates":[[[-127.05000000000001,-7.25],[-127.94999999999999,-9.05],[-128.15,-10.3],[-129.05,-11.35],[-128.65,-12.4],[-128.65,-13.4],[-128.45,-13.3],[-124.80000000000001,-13.4],[-124.75,-12.15],[-125.05000000000001,-11.15],[-124.6,-10.35],[-123.55000000000001,-9.7],[-123.19999999999999,-9.2],[-124.25,-9.3],[-124.35,-8.35],[-125.94999999999999,-8.35],[-126.75,-7.35],[-127.05000000000001,-7.25]]]}},{"type":"Feature","properties":{"district":"復活節尖端"},"geometry":{"type":"Polygon","coordinates":[[[-123.19999999999999,-9.2],[-123.55000000000001,-9.7],[-124.6,-10.35],[-125.05000000000001,-11.15],[-124.75,-12.15],[-124.80000000000001,-13.4],[-121.5,-13.4],[-121.5,-12.6],[-122.15,-12.05],[-122.15,-11.1],[-122.5,-10.5],[-122.5,-9.1],[-123.19999999999999,-9.2]]]}}]}